start=new Date('2023-05-27T00:00:00.000Z').valueOf();
sats=[{"MEAN_ELEMENT_THEORY":"SGP4","BSTAR":"0.00008256100000","PERIAPSIS":"539.376","MEAN_ANOMALY":"194.6163","DECAY_DATE":null,"EPHEMERIS_TYPE":"0","NORAD_CAT_ID":"53036","COUNTRY_CODE":"US","RA_OF_ASC_NODE":"323.1468","MEAN_MOTION_DOT":"0.00001027","ARG_OF_PERICENTER":"165.4845","REV_AT_EPOCH":"4947","SEMIMAJOR_AXIS":"6917.871","REF_FRAME":"TEME","MEAN_MOTION_DDOT":"0.0000000000000","FILE":"3917850","TLE_LINE1":"1 53036U 22076BC  23146.90148156  .00001027  00000-0  82561-4 0  9990","SITE":"AFETR","OBJECT_ID":"2022-076BC","LAUNCH_DATE":"2022-07-07","ELEMENT_SET_NO":"999","CENTER_NAME":"EARTH","MEAN_MOTION":"15.08842973","CLASSIFICATION_TYPE":"U","RCS_SIZE":"LARGE","PERIOD":"95.437","TIME_SYSTEM":"UTC","EPOCH":"2023-05-26T21:38:08.006784","INCLINATION":"53.2168","OBJECT_TYPE":"PAYLOAD","TLE_LINE2":"2 53036  53.2168 323.1468 0000521 165.4845 194.6163 15.08842973 49473","GP_ID":"232587729","APOAPSIS":"540.097","OBJECT_NAME":"STARLINK-4155","ECCENTRICITY":"0.00005210"},{"MEAN_MOTION":"15.08842800","RCS_SIZE":"LARGE","CLASSIFICATION_TYPE":"U","PERIOD":"95.437","TLE_LINE1":"1 53037U 22076BD  23146.76532717  .00001232  00000-0  95437-4 0  9999","OBJECT_ID":"2022-076BD","SITE":"AFETR","ELEMENT_SET_NO":"999","LAUNCH_DATE":"2022-07-07","CENTER_NAME":"EARTH","OBJECT_TYPE":"PAYLOAD","TLE_LINE2":"2 53037  53.2164 323.7583 0000954  87.0240 273.0861 15.08842800 49456","APOAPSIS":"540.397","GP_ID":"232586477","OBJECT_NAME":"STARLINK-4153","ECCENTRICITY":"0.00009540","TIME_SYSTEM":"UTC","EPOCH":"2023-05-26T18:22:04.267488","INCLINATION":"53.2164","MEAN_ANOMALY":"273.0861","RA_OF_ASC_NODE":"323.7583","COUNTRY_CODE":"US","DECAY_DATE":null,"NORAD_CAT_ID":"53037","EPHEMERIS_TYPE":"0","BSTAR":"0.00009543700000","MEAN_ELEMENT_THEORY":"SGP4","PERIAPSIS":"539.077","MEAN_MOTION_DDOT":"0.0000000000000","FILE":"3917850","ARG_OF_PERICENTER":"87.0240","MEAN_MOTION_DOT":"0.00001232","REV_AT_EPOCH":"4945","REF_FRAME":"TEME","SEMIMAJOR_AXIS":"6917.872"},{"MEAN_MOTION":"15.08849108","CLASSIFICATION_TYPE":"U","RCS_SIZE":"LARGE","PERIOD":"95.437","TLE_LINE1":"1 53038U 22076BE  23146.76164391  .00001782  00000-0  12999-3 0  9990","SITE":"AFETR","OBJECT_ID":"2022-076BE","LAUNCH_DATE":"2022-07-07","ELEMENT_SET_NO":"999","CENTER_NAME":"EARTH","OBJECT_TYPE":"PAYLOAD","TLE_LINE2":"2 53038  53.2161 323.7748 0000963  80.8805 279.2296 15.08849108 49453","GP_ID":"232587228","APOAPSIS":"540.384","OBJECT_NAME":"STARLINK-4156","ECCENTRICITY":"0.00009630","TIME_SYSTEM":"UTC","EPOCH":"2023-05-26T18:16:46.033824","INCLINATION":"53.2161","MEAN_ANOMALY":"279.2296","EPHEMERIS_TYPE":"0","DECAY_DATE":null,"NORAD_CAT_ID":"53038","RA_OF_ASC_NODE":"323.7748","COUNTRY_CODE":"US","MEAN_ELEMENT_THEORY":"SGP4","BSTAR":"0.00012999000000","PERIAPSIS":"539.051","MEAN_MOTION_DDOT":"0.0000000000000","FILE":"3917850","MEAN_MOTION_DOT":"0.00001782","ARG_OF_PERICENTER":"80.8805","REV_AT_EPOCH":"4945","SEMIMAJOR_AXIS":"6917.853","REF_FRAME":"TEME"},{"MEAN_ANOMALY":"258.0017","RA_OF_ASC_NODE":"327.8406","COUNTRY_CODE":"US","DECAY_DATE":null,"NORAD_CAT_ID":"53043","EPHEMERIS_TYPE":"0","BSTAR":"0.00004664500000","MEAN_ELEMENT_THEORY":"SGP4","PERIAPSIS":"560.609","MEAN_MOTION_DDOT":"0.0000000000000","FILE":"3917630","ARG_OF_PERICENTER":"102.1595","MEAN_MOTION_DOT":"0.00000540","REF_FRAME":"TEME","SEMIMAJOR_AXIS":"6941.143","REV_AT_EPOCH":"4815","MEAN_MOTION":"15.01261330","PERIOD":"95.919","RCS_SIZE":"LARGE","CLASSIFICATION_TYPE":"U","OBJECT_ID":"2022-077A","SITE":"AFWTR","TLE_LINE1":"1 53043U 22077A   23146.46119085  .00000540  00000-0  46645-4 0  9991","CENTER_NAME":"EARTH","ELEMENT_SET_NO":"999","LAUNCH_DATE":"2022-07-11","TLE_LINE2":"2 53043  97.6593 327.8406 0003456 102.1595 258.0017 15.01261330 48150","OBJECT_TYPE":"PAYLOAD","ECCENTRICITY":"0.00034560","APOAPSIS":"565.407","GP_ID":"232554829","OBJECT_NAME":"STARLINK-4362","EPOCH":"2023-05-26T11:04:06.889440","TIME_SYSTEM":"UTC","INCLINATION":"97.6593"},{"INCLINATION":"97.6578","EPOCH":"2023-05-26T10:58:46.640064","TIME_SYSTEM":"UTC","ECCENTRICITY":"0.00030510","OBJECT_NAME":"STARLINK-4349","GP_ID":"232556080","APOAPSIS":"565.121","TLE_LINE2":"2 53044  97.6578 327.8435 0003051  78.6706 281.4861 15.01262868 48152","OBJECT_TYPE":"PAYLOAD","CENTER_NAME":"EARTH","ELEMENT_SET_NO":"999","LAUNCH_DATE":"2022-07-11","OBJECT_ID":"2022-077B","SITE":"AFWTR","TLE_LINE1":"1 53044U 22077B   23146.45748426  .00001247  00000-0  10168-3 0  9993","PERIOD":"95.919","RCS_SIZE":"LARGE","CLASSIFICATION_TYPE":"U","MEAN_MOTION":"15.01262868","REF_FRAME":"TEME","SEMIMAJOR_AXIS":"6941.138","REV_AT_EPOCH":"4815","ARG_OF_PERICENTER":"78.6706","MEAN_MOTION_DOT":"0.00001247","FILE":"3917630","MEAN_MOTION_DDOT":"0.0000000000000","PERIAPSIS":"560.885","BSTAR":"0.00010168000000","MEAN_ELEMENT_THEORY":"SGP4","RA_OF_ASC_NODE":"327.8435","COUNTRY_CODE":"US","EPHEMERIS_TYPE":"0","DECAY_DATE":null,"NORAD_CAT_ID":"53044","MEAN_ANOMALY":"281.4861"},{"MEAN_MOTION":"15.01262691","CLASSIFICATION_TYPE":"U","RCS_SIZE":"LARGE","PERIOD":"95.919","TLE_LINE1":"1 53045U 22077C   23146.46304275  .00000490  00000-0  42770-4 0  9999","SITE":"AFWTR","OBJECT_ID":"2022-077C","LAUNCH_DATE":"2022-07-11","ELEMENT_SET_NO":"999","CENTER_NAME":"EARTH","OBJECT_TYPE":"PAYLOAD","TLE_LINE2":"2 53045  97.6578 327.8232 0002927  99.5714 260.5841 15.01262691 48150","APOAPSIS":"565.035","GP_ID":"232555831","OBJECT_NAME":"STARLINK-4350","ECCENTRICITY":"0.00029270","TIME_SYSTEM":"UTC","EPOCH":"2023-05-26T11:06:46.893600","INCLINATION":"97.6578","MEAN_ANOMALY":"260.5841","DECAY_DATE":null,"EPHEMERIS_TYPE":"0","NORAD_CAT_ID":"53045","RA_OF_ASC_NODE":"327.8232","COUNTRY_CODE":"US","MEAN_ELEMENT_THEORY":"SGP4","BSTAR":"0.00004277000000","PERIAPSIS":"560.972","MEAN_MOTION_DDOT":"0.0000000000000","FILE":"3917630","MEAN_MOTION_DOT":"0.00000490","ARG_OF_PERICENTER":"99.5714","REV_AT_EPOCH":"4815","SEMIMAJOR_AXIS":"6941.139","REF_FRAME":"TEME"},{"SITE":"AFWTR","OBJECT_ID":"2022-077D","TLE_LINE1":"1 53046U 22077D   23146.45563639  .00000520  00000-0  45109-4 0  9993","CENTER_NAME":"EARTH","ELEMENT_SET_NO":"999","LAUNCH_DATE":"2022-07-11","MEAN_MOTION":"15.01259961","PERIOD":"95.919","CLASSIFICATION_TYPE":"U","RCS_SIZE":"LARGE","EPOCH":"2023-05-26T10:56:06.984096","TIME_SYSTEM":"UTC","INCLINATION":"97.6638","TLE_LINE2":"2 53046  97.6638 327.8599 0002641  75.9643 284.1875 15.01259961 48151","OBJECT_TYPE":"PAYLOAD","ECCENTRICITY":"0.00026410","GP_ID":"232555079","APOAPSIS":"564.845","OBJECT_NAME":"STARLINK-4331","MEAN_ELEMENT_THEORY":"SGP4","BSTAR":"0.00004510900000","PERIAPSIS":"561.179","MEAN_ANOMALY":"284.1875","NORAD_CAT_ID":"53046","DECAY_DATE":null,"EPHEMERIS_TYPE":"0","RA_OF_ASC_NODE":"327.8599","COUNTRY_CODE":"US","MEAN_MOTION_DOT":"0.00000520","ARG_OF_PERICENTER":"75.9643","SEMIMAJOR_AXIS":"6941.147","REF_FRAME":"TEME","REV_AT_EPOCH":"4815","MEAN_MOTION_DDOT":"0.0000000000000","FILE":"3917630"},{"COUNTRY_CODE":"US","RA_OF_ASC_NODE":"327.9094","EPHEMERIS_TYPE":"0","DECAY_DATE":null,"NORAD_CAT_ID":"53047","MEAN_ANOMALY":"280.1377","PERIAPSIS":"560.873","BSTAR":"0.00009503900000","MEAN_ELEMENT_THEORY":"SGP4","FILE":"3917630","MEAN_MOTION_DDOT":"0.0000000000000","REF_FRAME":"TEME","SEMIMAJOR_AXIS":"6941.130","REV_AT_EPOCH":"4816","ARG_OF_PERICENTER":"80.0192","MEAN_MOTION_DOT":"0.00001162","PERIOD":"95.919","RCS_SIZE":"LARGE","CLASSIFICATION_TYPE":"U","MEAN_MOTION":"15.01265414","CENTER_NAME":"EARTH","ELEMENT_SET_NO":"999","LAUNCH_DATE":"2022-07-11","OBJECT_ID":"2022-077E","SITE":"AFWTR","TLE_LINE1":"1 53047U 22077E   23146.52043234  .00001162  00000-0  95039-4 0  9996","ECCENTRICITY":"0.00030580","OBJECT_NAME":"STARLINK-4352","GP_ID":"232555329","APOAPSIS":"565.118","TLE_LINE2":"2 53047  97.6571 327.9094 0003058  80.0192 280.1377 15.01265414 48162","OBJECT_TYPE":"PAYLOAD","INCLINATION":"97.6571","EPOCH":"2023-05-26T12:29:25.354176","TIME_SYSTEM":"UTC"},{"OBJECT_NAME":"STARLINK-4355","GP_ID":"232555581","APOAPSIS":"564.538","ECCENTRICITY":"0.00022140","OBJECT_TYPE":"PAYLOAD","TLE_LINE2":"2 53048  97.6572 327.8439 0002214  87.7984 272.3493 15.01263401 48146","INCLINATION":"97.6572","TIME_SYSTEM":"UTC","EPOCH":"2023-05-26T10:53:47.674464","RCS_SIZE":"LARGE","CLASSIFICATION_TYPE":"U","PERIOD":"95.919","MEAN_MOTION":"15.01263401","LAUNCH_DATE":"2022-07-11","ELEMENT_SET_NO":"999","CENTER_NAME":"EARTH","TLE_LINE1":"1 53048U 22077F   23146.45402401  .00001236  00000-0  10082-3 0  9990","OBJECT_ID":"2022-077F","SITE":"AFWTR","FILE":"3917630","MEAN_MOTION_DDOT":"0.0000000000000","REV_AT_EPOCH":"4814","REF_FRAME":"TEME","SEMIMAJOR_AXIS":"6941.136","ARG_OF_PERICENTER":"87.7984","MEAN_MOTION_DOT":"0.00001236","COUNTRY_CODE":"US","RA_OF_ASC_NODE":"327.8439","DECAY_DATE":null,"NORAD_CAT_ID":"53048","EPHEMERIS_TYPE":"0","MEAN_ANOMALY":"272.3493","PERIAPSIS":"561.465","BSTAR":"0.00010082000000","MEAN_ELEMENT_THEORY":"SGP4"},{"BSTAR":"0.00006887900000","MEAN_ELEMENT_THEORY":"SGP4","PERIAPSIS":"561.689","MEAN_ANOMALY":"267.4007","COUNTRY_CODE":"US","RA_OF_ASC_NODE":"327.9089","NORAD_CAT_ID":"53049","DECAY_DATE":null,"EPHEMERIS_TYPE":"0","ARG_OF_PERICENTER":"92.7435","MEAN_MOTION_DOT":"0.00000826","REV_AT_EPOCH":"4815","REF_FRAME":"TEME","SEMIMAJOR_AXIS":"6941.145","MEAN_MOTION_DDOT":"0.0000000000000","FILE":"3917630","TLE_LINE1":"1 53049U 22077G   23146.51302854  .00000826  00000-0  68879-4 0  9991","OBJECT_ID":"2022-077G","SITE":"AFWTR","LAUNCH_DATE":"2022-07-11","ELEMENT_SET_NO":"999","CENTER_NAME":"EARTH","MEAN_MOTION":"15.01260660","RCS_SIZE":"LARGE","CLASSIFICATION_TYPE":"U","PERIOD":"95.919","TIME_SYSTEM":"UTC","EPOCH":"2023-05-26T12:18:45.665856","INCLINATION":"97.6560","OBJECT_TYPE":"PAYLOAD","TLE_LINE2":"2 53049  97.6560 327.9089 0001903  92.7435 267.4007 15.01260660 48158","GP_ID":"232556331","OBJECT_NAME":"STARLINK-4345","APOAPSIS":"564.331","ECCENTRICITY":"0.00019030"}];
